{
  "norad_id": 61950,
  "name": "STARLINK-11423 [DTC]",
  "history": [
    {
      "epoch": "2026-03-28T21:22:47.669664Z",
      "apogee_km": 360.3400901739069,
      "perigee_km": 358.93189561839154,
      "latitude_deg": 1.5143419085416803e-05,
      "longitude_deg": 129.60501012871802,
      "height_km": 360.375060729627,
      "semi_major_axis_km": 6737.772992896149,
      "eccentricity": 0.0001045,
      "inclination_deg": 53.1566,
      "raan_deg": 276.6084,
      "arg_perigee_deg": 75.6632,
      "mean_anomaly_deg": 284.4502,
      "mean_motion_rev_day": 15.69741716
    },
    {
      "epoch": "2026-03-28T21:22:47.670528Z",
      "apogee_km": 360.3398880407167,
      "perigee_km": 358.93209775158084,
      "latitude_deg": 1.7812202153997574e-05,
      "longitude_deg": 129.6051085073095,
      "height_km": 360.37511078311655,
      "semi_major_axis_km": 6737.772992896149,
      "eccentricity": 0.00010447,
      "inclination_deg": 53.1566,
      "raan_deg": 276.6085,
      "arg_perigee_deg": 75.6632,
      "mean_anomaly_deg": 284.4502,
      "mean_motion_rev_day": 15.69741716
    },
    {
      "epoch": "2026-03-29T23:21:24.585408Z",
      "apogee_km": 360.02485039508974,
      "perigee_km": 358.88215504582877,
      "latitude_deg": 7.025197235180634e-06,
      "longitude_deg": 93.54655469330469,
      "height_km": 360.3967950608618,
      "semi_major_axis_km": 6737.590502720459,
      "eccentricity": 8.48e-05,
      "inclination_deg": 53.1562,
      "raan_deg": 271.2706,
      "arg_perigee_deg": 92.9775,
      "mean_anomaly_deg": 267.134,
      "mean_motion_rev_day": 15.69805492
    },
    {
      "epoch": "2026-03-30T05:28:09.321024Z",
      "apogee_km": 360.33813163175637,
      "perigee_km": 358.9156549186091,
      "latitude_deg": -3.4594933287800715e-05,
      "longitude_deg": 0.3554971212069534,
      "height_km": 360.3745809678922,
      "semi_major_axis_km": 6737.763893275182,
      "eccentricity": 0.00010556,
      "inclination_deg": 53.1565,
      "raan_deg": 270.017,
      "arg_perigee_deg": 76.5271,
      "mean_anomaly_deg": 283.5864,
      "mean_motion_rev_day": 15.69744896
    }
  ]
}